{"fetched_at":"2026-07-16T17:46:18.024Z","source":"https://celestrak.org/NORAD/elements/gp.php?NAME=BRO&FORMAT=JSON","constellation":"unseenlabs","records":[{"OBJECT_NAME":"BRO-1","OBJECT_ID":"2019-054A","EPOCH":"2026-07-15T04:06:01.933344","CLASSIFICATION_TYPE":"U","MEAN_MOTION":16.18539543,"ECCENTRICITY":0.0010475,"INCLINATION":44.9803,"RA_OF_ASC_NODE":118.9928,"ARG_OF_PERICENTER":204.991,"MEAN_ANOMALY":155.0501,"EPHEMERIS_TYPE":0,"NORAD_CAT_ID":44495,"ELEMENT_SET_NO":999,"REV_AT_EPOCH":38422,"BSTAR":0.00076518174,"MEAN_MOTION_DOT":0.01393181,"MEAN_MOTION_DDOT":0.000010026129},{"OBJECT_NAME":"BRO-5","OBJECT_ID":"2022-002CF","EPOCH":"2026-07-16T06:31:36.811776","CLASSIFICATION_TYPE":"U","MEAN_MOTION":15.48923397,"ECCENTRICITY":0.00054984,"INCLINATION":97.2984,"RA_OF_ASC_NODE":271.229,"ARG_OF_PERICENTER":199.3234,"MEAN_ANOMALY":160.781,"EPHEMERIS_TYPE":0,"NORAD_CAT_ID":51061,"ELEMENT_SET_NO":999,"REV_AT_EPOCH":25075,"BSTAR":0.00035248005,"MEAN_MOTION_DOT":0.00018958,"MEAN_MOTION_DDOT":0},{"OBJECT_NAME":"BRO-6","OBJECT_ID":"2022-047AE","EPOCH":"2026-07-16T06:55:08.131584","CLASSIFICATION_TYPE":"U","MEAN_MOTION":15.52626683,"ECCENTRICITY":0.00028176,"INCLINATION":97.3391,"RA_OF_ASC_NODE":288.9449,"ARG_OF_PERICENTER":304.3384,"MEAN_ANOMALY":55.7603,"EPHEMERIS_TYPE":0,"NORAD_CAT_ID":52422,"ELEMENT_SET_NO":999,"REV_AT_EPOCH":23566,"BSTAR":0.00045353214,"MEAN_MOTION_DOT":0.00027865,"MEAN_MOTION_DDOT":0},{"OBJECT_NAME":"BRO-8","OBJECT_ID":"2023-001C","EPOCH":"2026-07-16T07:03:20.848320","CLASSIFICATION_TYPE":"U","MEAN_MOTION":15.50794295,"ECCENTRICITY":0.0004766,"INCLINATION":97.3184,"RA_OF_ASC_NODE":262.9313,"ARG_OF_PERICENTER":36.1624,"MEAN_ANOMALY":323.9949,"EPHEMERIS_TYPE":0,"NORAD_CAT_ID":55011,"ELEMENT_SET_NO":999,"REV_AT_EPOCH":19671,"BSTAR":0.00033330892,"MEAN_MOTION_DOT":0.00019142,"MEAN_MOTION_DDOT":0},{"OBJECT_NAME":"BRO-11","OBJECT_ID":"2023-174J","EPOCH":"2026-07-16T06:25:35.065344","CLASSIFICATION_TYPE":"U","MEAN_MOTION":15.27596016,"ECCENTRICITY":0.00120238,"INCLINATION":97.3897,"RA_OF_ASC_NODE":273.8478,"ARG_OF_PERICENTER":104.4643,"MEAN_ANOMALY":255.7931,"EPHEMERIS_TYPE":0,"NORAD_CAT_ID":58264,"ELEMENT_SET_NO":999,"REV_AT_EPOCH":14919,"BSTAR":0.00009208939,"MEAN_MOTION_DOT":0.00002415,"MEAN_MOTION_DDOT":0},{"OBJECT_NAME":"BRO-13","OBJECT_ID":"2024-043K","EPOCH":"2026-07-16T07:25:41.825568","CLASSIFICATION_TYPE":"U","MEAN_MOTION":14.9665296,"ECCENTRICITY":0.00074106,"INCLINATION":97.8528,"RA_OF_ASC_NODE":328.4263,"ARG_OF_PERICENTER":257.712,"MEAN_ANOMALY":102.3272,"EPHEMERIS_TYPE":0,"NORAD_CAT_ID":59107,"ELEMENT_SET_NO":999,"REV_AT_EPOCH":12897,"BSTAR":0.000089371841,"MEAN_MOTION_DOT":0.0000096,"MEAN_MOTION_DDOT":0},{"OBJECT_NAME":"BRO-12","OBJECT_ID":"2024-043L","EPOCH":"2026-07-16T07:13:15.726144","CLASSIFICATION_TYPE":"U","MEAN_MOTION":14.96894551,"ECCENTRICITY":0.00070283,"INCLINATION":97.851,"RA_OF_ASC_NODE":328.587,"ARG_OF_PERICENTER":251.3484,"MEAN_ANOMALY":108.6974,"EPHEMERIS_TYPE":0,"NORAD_CAT_ID":59108,"ELEMENT_SET_NO":999,"REV_AT_EPOCH":12899,"BSTAR":0.000061590931,"MEAN_MOTION_DOT":0.00000647,"MEAN_MOTION_DDOT":0},{"OBJECT_NAME":"BRO-14","OBJECT_ID":"2024-149CM","EPOCH":"2026-07-16T03:40:27.637824","CLASSIFICATION_TYPE":"U","MEAN_MOTION":14.96237724,"ECCENTRICITY":0.00066551,"INCLINATION":97.6864,"RA_OF_ASC_NODE":272.4099,"ARG_OF_PERICENTER":15.2569,"MEAN_ANOMALY":344.8852,"EPHEMERIS_TYPE":0,"NORAD_CAT_ID":60551,"ELEMENT_SET_NO":999,"REV_AT_EPOCH":10432,"BSTAR":0.000090684063,"MEAN_MOTION_DOT":0.00000966,"MEAN_MOTION_DDOT":0},{"OBJECT_NAME":"BRO-15","OBJECT_ID":"2024-149CP","EPOCH":"2026-07-16T04:51:50.570496","CLASSIFICATION_TYPE":"U","MEAN_MOTION":14.96222051,"ECCENTRICITY":0.00076783,"INCLINATION":97.679,"RA_OF_ASC_NODE":272.0334,"ARG_OF_PERICENTER":1.2178,"MEAN_ANOMALY":358.9061,"EPHEMERIS_TYPE":0,"NORAD_CAT_ID":60553,"ELEMENT_SET_NO":999,"REV_AT_EPOCH":10434,"BSTAR":0.000030614208,"MEAN_MOTION_DOT":0.00000288,"MEAN_MOTION_DDOT":0},{"OBJECT_NAME":"BRO-16","OBJECT_ID":"2025-009AX","EPOCH":"2026-07-16T03:57:30.126528","CLASSIFICATION_TYPE":"U","MEAN_MOTION":15.24131992,"ECCENTRICITY":0.00022664,"INCLINATION":97.4055,"RA_OF_ASC_NODE":277.2947,"ARG_OF_PERICENTER":152.3154,"MEAN_ANOMALY":207.8205,"EPHEMERIS_TYPE":0,"NORAD_CAT_ID":62654,"ELEMENT_SET_NO":999,"REV_AT_EPOCH":8321,"BSTAR":0.000077665102,"MEAN_MOTION_DOT":0.00001817,"MEAN_MOTION_DDOT":0},{"OBJECT_NAME":"BRO-18","OBJECT_ID":"2025-135Y","EPOCH":"2026-07-16T07:25:07.817664","CLASSIFICATION_TYPE":"U","MEAN_MOTION":15.22176866,"ECCENTRICITY":0.00024545,"INCLINATION":97.4654,"RA_OF_ASC_NODE":312.1189,"ARG_OF_PERICENTER":113.7854,"MEAN_ANOMALY":246.3639,"EPHEMERIS_TYPE":0,"NORAD_CAT_ID":64550,"ELEMENT_SET_NO":999,"REV_AT_EPOCH":5930,"BSTAR":0.000091268923,"MEAN_MOTION_DOT":0.00002024,"MEAN_MOTION_DDOT":0},{"OBJECT_NAME":"BRO-17","OBJECT_ID":"2025-276G","EPOCH":"2026-07-16T04:26:05.730720","CLASSIFICATION_TYPE":"U","MEAN_MOTION":15.18161568,"ECCENTRICITY":0.00051263,"INCLINATION":97.4181,"RA_OF_ASC_NODE":269.7334,"ARG_OF_PERICENTER":254.8054,"MEAN_ANOMALY":105.2613,"EPHEMERIS_TYPE":0,"NORAD_CAT_ID":66672,"ELEMENT_SET_NO":999,"REV_AT_EPOCH":3479,"BSTAR":0.00008095016,"MEAN_MOTION_DOT":0.00001587,"MEAN_MOTION_DDOT":0},{"OBJECT_NAME":"BRO-20","OBJECT_ID":"2025-276J","EPOCH":"2026-07-16T03:51:24.220800","CLASSIFICATION_TYPE":"U","MEAN_MOTION":15.18328205,"ECCENTRICITY":0.00047778,"INCLINATION":97.4161,"RA_OF_ASC_NODE":269.6978,"ARG_OF_PERICENTER":258.6257,"MEAN_ANOMALY":101.4441,"EPHEMERIS_TYPE":0,"NORAD_CAT_ID":66674,"ELEMENT_SET_NO":999,"REV_AT_EPOCH":3479,"BSTAR":0.000075562583,"MEAN_MOTION_DOT":0.00001484,"MEAN_MOTION_DDOT":0},{"OBJECT_NAME":"BRO-19","OBJECT_ID":"2026-067G","EPOCH":"2026-07-15T20:07:21.012096","CLASSIFICATION_TYPE":"U","MEAN_MOTION":15.18989444,"ECCENTRICITY":0.00025238,"INCLINATION":97.4494,"RA_OF_ASC_NODE":154.8891,"ARG_OF_PERICENTER":107.2645,"MEAN_ANOMALY":252.8866,"EPHEMERIS_TYPE":0,"NORAD_CAT_ID":68422,"ELEMENT_SET_NO":999,"REV_AT_EPOCH":1629,"BSTAR":0.000084642957,"MEAN_MOTION_DOT":0.00001703,"MEAN_MOTION_DDOT":0},{"OBJECT_NAME":"BRO-21","OBJECT_ID":"2026-100AD","EPOCH":"2026-07-16T04:38:14.188992","CLASSIFICATION_TYPE":"U","MEAN_MOTION":15.21633528,"ECCENTRICITY":0.00066047,"INCLINATION":97.4009,"RA_OF_ASC_NODE":94.612,"ARG_OF_PERICENTER":325.2098,"MEAN_ANOMALY":34.8706,"EPHEMERIS_TYPE":0,"NORAD_CAT_ID":69007,"ELEMENT_SET_NO":999,"REV_AT_EPOCH":1121,"BSTAR":0.00016569114,"MEAN_MOTION_DOT":0.00003675,"MEAN_MOTION_DDOT":0},{"OBJECT_NAME":"BRO-22","OBJECT_ID":"2026-132C","EPOCH":"2026-07-16T00:59:57.198336","CLASSIFICATION_TYPE":"U","MEAN_MOTION":14.99809416,"ECCENTRICITY":0.00166394,"INCLINATION":97.6822,"RA_OF_ASC_NODE":260.3513,"ARG_OF_PERICENTER":177.6508,"MEAN_ANOMALY":182.4796,"EPHEMERIS_TYPE":0,"NORAD_CAT_ID":69504,"ELEMENT_SET_NO":999,"REV_AT_EPOCH":510,"BSTAR":0.00011628671,"MEAN_MOTION_DOT":0.00001383,"MEAN_MOTION_DDOT":0}]}
