BRO-1                   
1 44495U 19054A   26196.17085571  .01393181  10026-4  76518-3 0  9992
2 44495  44.9803 118.9928 0010475 204.9910 155.0501 16.18539543384227
BRO-5                   
1 51061U 22002CF  26197.27195384  .00018958  00000+0  35248-3 0  9998
2 51061  97.2984 271.2290 0005498 199.3234 160.7810 15.48923397250757
BRO-6                   
1 52422U 22047AE  26197.28828856  .00027865  00000+0  45353-3 0  9992
2 52422  97.3391 288.9449 0002817 304.3384  55.7603 15.52626683235668
BRO-8                   
1 55011U 23001C   26197.29399130  .00019142  00000+0  33331-3 0  9991
2 55011  97.3184 262.9313 0004766  36.1624 323.9949 15.50794295196717
BRO-11                  
1 58264U 23174J   26197.26776696  .00002415  00000+0  92089-4 0  9999
2 58264  97.3897 273.8478 0012023 104.4643 255.7931 15.27596016149197
BRO-13                  
1 59107U 24043K   26197.30951187  .00000960  00000+0  89372-4 0  9991
2 59107  97.8528 328.4263 0007410 257.7120 102.3272 14.96652960128979
BRO-12                  
1 59108U 24043L   26197.30087646  .00000647  00000+0  61591-4 0  9997
2 59108  97.8510 328.5870 0007028 251.3484 108.6974 14.96894551128998
BRO-14                  
1 60551U 24149CM  26197.15309766  .00000966  00000+0  90684-4 0  9990
2 60551  97.6864 272.4099 0006655  15.2569 344.8852 14.96237724104321
BRO-15                  
1 60553U 24149CP  26197.20266864  .00000288  00000+0  30614-4 0  9993
2 60553  97.6790 272.0334 0007678   1.2178 358.9061 14.96222051104343
BRO-16                  
1 62654U 25009AX  26197.16493202  .00001817  00000+0  77665-4 0  9992
2 62654  97.4055 277.2947 0002266 152.3154 207.8205 15.24131992 83215
BRO-18                  
1 64550U 25135Y   26197.30911826  .00002024  00000+0  91269-4 0  9999
2 64550  97.4654 312.1189 0002454 113.7854 246.3639 15.22176866 59300
BRO-17                  
1 66672U 25276G   26197.18478855  .00001587  00000+0  80950-4 0  9996
2 66672  97.4181 269.7334 0005126 254.8054 105.2613 15.18161568 34798
BRO-20                  
1 66674U 25276J   26197.16069700  .00001484  00000+0  75563-4 0  9991
2 66674  97.4161 269.6978 0004777 258.6257 101.4441 15.18328205 34799
BRO-19                  
1 68422U 26067G   26196.83843764  .00001703  00000+0  84643-4 0  9999
2 68422  97.4494 154.8891 0002523 107.2645 252.8866 15.18989444 16292
BRO-21                  
1 69007U 26100AD  26197.19321978  .00003675  00000+0  16569-3 0  9996
2 69007  97.4009  94.6120 0006604 325.2098  34.8706 15.21633528 11219
BRO-22                  
1 69504U 26132C   26197.04163424  .00001383  00000+0  11629-3 0  9993
2 69504  97.6822 260.3513 0016639 177.6508 182.4796 14.99809416  5103
